{
  "norad_id": 57680,
  "name": "STARLINK-30283",
  "history": [
    {
      "epoch": "2026-03-28T19:37:01.122240Z",
      "apogee_km": 476.3104564374962,
      "perigee_km": 474.1745321843,
      "latitude_deg": 2.295806562612817e-06,
      "longitude_deg": -2.3464508592869366,
      "height_km": 475.86025963069466,
      "semi_major_axis_km": 6853.379494310898,
      "eccentricity": 0.00015583,
      "inclination_deg": 53.1609,
      "raan_deg": 118.1406,
      "arg_perigee_deg": 74.7958,
      "mean_anomaly_deg": 285.3215,
      "mean_motion_rev_day": 15.30190815
    }
  ]
}